{"type": "FeatureCollection", "features": [ {"type": "Feature", "properties": {"norad_id": 33779, "name": "COSMOS 2251 DEB", "group": "cosmos-2251-debris", "lat": 31.57336173169501, "lon": 167.51191361952607, "alt_km": 667.6980048575542, "timestamp": "2025-12-19T14:48:36.640520+00:00", "meta": {"OBJECT_NAME": "COSMOS 2251 DEB", "OBJECT_ID": "1993-036U", "EPOCH": "2025-12-19T05:38:52.809216", "MEAN_MOTION": 14.70600449, "ECCENTRICITY": 0.00164897, "INCLINATION": 74.0441, "RA_OF_ASC_NODE": 158.1252, "ARG_OF_PERICENTER": 191.0609, "MEAN_ANOMALY": 341.852, "EPHEMERIS_TYPE": 0, "CLASSIFICATION_TYPE": "U", "NORAD_CAT_ID": 33779, "ELEMENT_SET_NO": 999, "REV_AT_EPOCH": 88623, "BSTAR": 0.0016292214, "MEAN_MOTION_DOT": 9.909e-05, "MEAN_MOTION_DDOT": 0}, "tle": {"line1": "1 33779U 93036U   25353.23533344  .00009909  00000+0  16292-2 0  9993", "line2": "2 33779  74.0441 158.1252 0016489 191.0609 341.8520 14.70600449886234"}}, "geometry": {"type": "Point", "coordinates": [167.51191361952607, 31.57336173169501]}}, {"type": "Feature", "properties": {"norad_id": 33782, "name": "COSMOS 2251 DEB", "group": "cosmos-2251-debris", "lat": 47.330763350633724, "lon": 66.73211767178611, "alt_km": 766.6004630500311, "timestamp": "2025-12-19T14:48:36.640530+00:00", "meta": {"OBJECT_NAME": "COSMOS 2251 DEB", "OBJECT_ID": "1993-036X", "EPOCH": "2025-12-19T04:54:18.526176", "MEAN_MOTION": 14.40463711, "ECCENTRICITY": 0.00209826, "INCLINATION": 74.033, "RA_OF_ASC_NODE": 265.5907, "ARG_OF_PERICENTER": 329.5275, "MEAN_ANOMALY": 181.1235, "EPHEMERIS_TYPE": 0, "CLASSIFICATION_TYPE": "U", "NORAD_CAT_ID": 33782, "ELEMENT_SET_NO": 999, "REV_AT_EPOCH": 88219, "BSTAR": 0.00028957356, "MEAN_MOTION_DOT": 8.96e-06, "MEAN_MOTION_DDOT": 0}, "tle": {"line1": "1 33782U 93036X   25353.20438109  .00000896  00000+0  28957-3 0  9995", "line2": "2 33782  74.0330 265.5907 0020982 329.5275 181.1235 14.40463711882190"}}, "geometry": {"type": "Point", "coordinates": [66.73211767178611, 47.330763350633724]}}, {"type": "Feature", "properties": {"norad_id": 33785, "name": "COSMOS 2251 DEB", "group": "cosmos-2251-debris", "lat": 7.0385189892499325, "lon": 48.4923278520053, "alt_km": 645.9209055481651, "timestamp": "2025-12-19T14:48:36.640542+00:00", "meta": {"OBJECT_NAME": "COSMOS 2251 DEB", "OBJECT_ID": "1993-036AA", "EPOCH": "2025-12-19T05:14:11.164128", "MEAN_MOTION": 14.70623759, "ECCENTRICITY": 0.00228627, "INCLINATION": 73.8672, "RA_OF_ASC_NODE": 47.2261, "ARG_OF_PERICENTER": 345.2992, "MEAN_ANOMALY": 70.9973, "EPHEMERIS_TYPE": 0, "CLASSIFICATION_TYPE": "U", "NORAD_CAT_ID": 33785, "ELEMENT_SET_NO": 999, "REV_AT_EPOCH": 88602, "BSTAR": 0.0012811599, "MEAN_MOTION_DOT": 7.8e-05, "MEAN_MOTION_DDOT": 0}, "tle": {"line1": "1 33785U 93036AA  25353.21818477  .00007800  00000+0  12812-2 0  9993", "line2": "2 33785  73.8672  47.2261 0022862 345.2992  70.9973 14.70623759886020"}}, "geometry": {"type": "Point", "coordinates": [48.4923278520053, 7.0385189892499325]}}, {"type": "Feature", "properties": {"norad_id": 33789, "name": "COSMOS 2251 DEB", "group": "cosmos-2251-debris", "lat": -33.997810004126976, "lon": 64.62482532210666, "alt_km": 1059.8292479634865, "timestamp": "2025-12-19T14:48:36.640553+00:00", "meta": {"OBJECT_NAME": "COSMOS 2251 DEB", "OBJECT_ID": "1993-036AE", "EPOCH": "2025-12-18T17:06:20.566656", "MEAN_MOTION": 13.88808828, "ECCENTRICITY": 0.02399295, "INCLINATION": 74.0645, "RA_OF_ASC_NODE": 77.2691, "ARG_OF_PERICENTER": 191.5866, "MEAN_ANOMALY": 291.2114, "EPHEMERIS_TYPE": 0, "CLASSIFICATION_TYPE": "U", "NORAD_CAT_ID": 33789, "ELEMENT_SET_NO": 999, "REV_AT_EPOCH": 85178, "BSTAR": 0.0005424512, "MEAN_MOTION_DOT": 8.01e-06, "MEAN_MOTION_DDOT": 0}, "tle": {"line1": "1 33789U 93036AE  25352.71273804  .00000801  00000+0  54245-3 0  9991", "line2": "2 33789  74.0645  77.2691 0239929 191.5866 291.2114 13.88808828851783"}}, "geometry": {"type": "Point", "coordinates": [64.62482532210666, -33.997810004126976]}}, {"type": "Feature", "properties": {"norad_id": 33791, "name": "COSMOS 2251 DEB", "group": "cosmos-2251-debris", "lat": 71.33415140730338, "lon": 147.8194793800735, "alt_km": 751.8992081180104, "timestamp": "2025-12-19T14:48:36.640563+00:00", "meta": {"OBJECT_NAME": "COSMOS 2251 DEB", "OBJECT_ID": "1993-036AG", "EPOCH": "2025-12-19T06:22:57.674784", "MEAN_MOTION": 14.43155982, "ECCENTRICITY": 0.00302978, "INCLINATION": 74.1749, "RA_OF_ASC_NODE": 25.5631, "ARG_OF_PERICENTER": 221.6448, "MEAN_ANOMALY": 215.0651, "EPHEMERIS_TYPE": 0, "CLASSIFICATION_TYPE": "U", "NORAD_CAT_ID": 33791, "ELEMENT_SET_NO": 999, "REV_AT_EPOCH": 88146, "BSTAR": 0.00058565018, "MEAN_MOTION_DOT": 1.953e-05, "MEAN_MOTION_DDOT": 0}, "tle": {"line1": "1 33791U 93036AG  25353.26594531  .00001953  00000+0  58565-3 0  9996", "line2": "2 33791  74.1749  25.5631 0030297 221.6448 215.0651 14.43155982881466"}}, "geometry": {"type": "Point", "coordinates": [147.8194793800735, 71.33415140730338]}}, {"type": "Feature", "properties": {"norad_id": 33792, "name": "COSMOS 2251 DEB", "group": "cosmos-2251-debris", "lat": -70.46409839949689, "lon": -151.1610350705719, "alt_km": 1329.2748086728961, "timestamp": "2025-12-19T14:48:36.640575+00:00", "meta": {"OBJECT_NAME": "COSMOS 2251 DEB", "OBJECT_ID": "1993-036AH", "EPOCH": "2025-12-19T05:03:54.497952", "MEAN_MOTION": 13.45833743, "ECCENTRICITY": 0.04274402, "INCLINATION": 73.9011, "RA_OF_ASC_NODE": 335.0098, "ARG_OF_PERICENTER": 38.4695, "MEAN_ANOMALY": 57.0376, "EPHEMERIS_TYPE": 0, "CLASSIFICATION_TYPE": "U", "NORAD_CAT_ID": 33792, "ELEMENT_SET_NO": 999, "REV_AT_EPOCH": 82529, "BSTAR": 0.0008044105, "MEAN_MOTION_DOT": 8.14e-06, "MEAN_MOTION_DDOT": 0}, "tle": {"line1": "1 33792U 93036AH  25353.21104743  .00000814  00000+0  80441-3 0  9997", "line2": "2 33792  73.9011 335.0098 0427440  38.4695  57.0376 13.45833743825296"}}, "geometry": {"type": "Point", "coordinates": [-151.1610350705719, -70.46409839949689]}}, {"type": "Feature", "properties": {"norad_id": 33793, "name": "COSMOS 2251 DEB", "group": "cosmos-2251-debris", "lat": -34.641331194402014, "lon": 125.96895523517924, "alt_km": 760.2486149147344, "timestamp": "2025-12-19T14:48:36.640586+00:00", "meta": {"OBJECT_NAME": "COSMOS 2251 DEB", "OBJECT_ID": "1993-036AJ", "EPOCH": "2025-12-19T04:03:31.274208", "MEAN_MOTION": 14.27743108, "ECCENTRICITY": 0.0078736, "INCLINATION": 73.9804, "RA_OF_ASC_NODE": 138.2322, "ARG_OF_PERICENTER": 287.0679, "MEAN_ANOMALY": 254.5819, "EPHEMERIS_TYPE": 0, "CLASSIFICATION_TYPE": "U", "NORAD_CAT_ID": 33793, "ELEMENT_SET_NO": 999, "REV_AT_EPOCH": 87298, "BSTAR": 0.00054096377, "MEAN_MOTION_DOT": 1.354e-05, "MEAN_MOTION_DDOT": 0}, "tle": {"line1": "1 33793U 93036AJ  25353.16911197  .00001354  00000+0  54096-3 0  9998", "line2": "2 33793  73.9804 138.2322 0078736 287.0679 254.5819 14.27743108872984"}}, "geometry": {"type": "Point", "coordinates": [125.96895523517924, -34.641331194402014]}}, {"type": "Feature", "properties": {"norad_id": 33795, "name": "COSMOS 2251 DEB", "group": "cosmos-2251-debris", "lat": 34.415088188009875, "lon": 73.94677325639691, "alt_km": 553.0582984479861, "timestamp": "2025-12-19T14:48:36.640596+00:00", "meta": {"OBJECT_NAME": "COSMOS 2251 DEB", "OBJECT_ID": "1993-036AL", "EPOCH": "2025-12-19T05:21:38.231424", "MEAN_MOTION": 15.05725957, "ECCENTRICITY": 0.00306709, "INCLINATION": 74.0325, "RA_OF_ASC_NODE": 63.4412, "ARG_OF_PERICENTER": 144.5876, "MEAN_ANOMALY": 278.4863, "EPHEMERIS_TYPE": 0, "CLASSIFICATION_TYPE": "U", "NORAD_CAT_ID": 33795, "ELEMENT_SET_NO": 999, "REV_AT_EPOCH": 90119, "BSTAR": 0.00085916484, "MEAN_MOTION_DOT": 0.00012545, "MEAN_MOTION_DDOT": 0}, "tle": {"line1": "1 33795U 93036AL  25353.22335916  .00012545  00000+0  85916-3 0  9995", "line2": "2 33795  74.0325  63.4412 0030670 144.5876 278.4863 15.05725957901195"}}, "geometry": {"type": "Point", "coordinates": [73.94677325639691, 34.415088188009875]}}, {"type": "Feature", "properties": {"norad_id": 33797, "name": "COSMOS 2251 DEB", "group": "cosmos-2251-debris", "lat": 61.15710619011955, "lon": 170.59621328973773, "alt_km": 651.2352925596851, "timestamp": "2025-12-19T14:48:36.640607+00:00", "meta": {"OBJECT_NAME": "COSMOS 2251 DEB", "OBJECT_ID": "1993-036AN", "EPOCH": "2025-12-19T04:42:00.554400", "MEAN_MOTION": 14.57869164, "ECCENTRICITY": 0.00604657, "INCLINATION": 74.0466, "RA_OF_ASC_NODE": 22.6891, "ARG_OF_PERICENTER": 108.6198, "MEAN_ANOMALY": 315.6458, "EPHEMERIS_TYPE": 0, "CLASSIFICATION_TYPE": "U", "NORAD_CAT_ID": 33797, "ELEMENT_SET_NO": 999, "REV_AT_EPOCH": 89079, "BSTAR": 0.00026459825, "MEAN_MOTION_DOT": 1.213e-05, "MEAN_MOTION_DDOT": 0}, "tle": {"line1": "1 33797U 93036AN  25353.19583975  .00001213  00000+0  26460-3 0  9992", "line2": "2 33797  74.0466  22.6891 0060465 108.6198 315.6458 14.57869164890796"}}, "geometry": {"type": "Point", "coordinates": [170.59621328973773, 61.15710619011955]}}, {"type": "Feature", "properties": {"norad_id": 33798, "name": "COSMOS 2251 DEB", "group": "cosmos-2251-debris", "lat": 25.445112371236785, "lon": 130.92740211892988, "alt_km": 794.9367266151085, "timestamp": "2025-12-19T14:48:36.640617+00:00", "meta": {"OBJECT_NAME": "COSMOS 2251 DEB", "OBJECT_ID": "1993-036AP", "EPOCH": "2025-12-18T19:04:37.157664", "MEAN_MOTION": 14.44621817, "ECCENTRICITY": 0.00924199, "INCLINATION": 74.0289, "RA_OF_ASC_NODE": 124.6267, "ARG_OF_PERICENTER": 244.6799, "MEAN_ANOMALY": 187.0164, "EPHEMERIS_TYPE": 0, "CLASSIFICATION_TYPE": "U", "NORAD_CAT_ID": 33798, "ELEMENT_SET_NO": 999, "REV_AT_EPOCH": 88681, "BSTAR": 0.00013907295, "MEAN_MOTION_DOT": 4.78e-06, "MEAN_MOTION_DDOT": 0}, "tle": {"line1": "1 33798U 93036AP  25352.79487451  .00000478  00000+0  13907-3 0  9994", "line2": "2 33798  74.0289 124.6267 0092419 244.6799 187.0164 14.44621817886812"}}, "geometry": {"type": "Point", "coordinates": [130.92740211892988, 25.445112371236785]}}]}